{
  "type": "FeatureCollection",
  "features": [
    {
      "type": "Feature",
      "properties": {
        "norad_id": 58701,
        "name": "TIANMU-1 16",
        "group": "weather",
        "lat": 12.960965056014286,
        "lon": -21.066588717490962,
        "alt_km": 498.3045263982058,
        "timestamp": "2025-12-02T07:10:08.752261+00:00",
        "meta_object_name": "TIANMU-1 16",
        "meta_object_id": "2024-004B",
        "meta_epoch": "2025-11-28T17:21:14.562144",
        "meta_mean_motion": 15.24146454,
        "meta_eccentricity": 0.00054689,
        "meta_inclination": 97.457,
        "meta_ra_of_asc_node": 153.6495,
        "meta_arg_of_pericenter": 351.9748,
        "meta_mean_anomaly": 8.1401,
        "meta_ephemeris_type": 0,
        "meta_classification_type": "U",
        "meta_norad_cat_id": 58701,
        "meta_element_set_no": 999,
        "meta_rev_at_epoch": 10521,
        "meta_bstar": 5.4123761e-05,
        "meta_mean_motion_dot": 1.245e-05,
        "meta_mean_motion_ddot": 0,
        "tle_line1": "1 58701U 24004B   25332.72308521  .00001245  00000+0  54124-4 0  9995",
        "tle_line2": "2 58701  97.4570 153.6495 0005468 351.9748   8.1401 15.24146454105217"
      },
      "geometry": {
        "type": "Point",
        "coordinates": [
          -21.066588717490962,
          12.960965056014286
        ]
      }
    },
    {
      "type": "Feature",
      "properties": {
        "norad_id": 58702,
        "name": "TIANMU-1 17",
        "group": "weather",
        "lat": -68.70636629074606,
        "lon": -42.034237291833215,
        "alt_km": 500.47884083009194,
        "timestamp": "2025-12-02T07:10:08.752273+00:00",
        "meta_object_name": "TIANMU-1 17",
        "meta_object_id": "2024-004C",
        "meta_epoch": "2025-12-01T20:37:19.568064",
        "meta_mean_motion": 15.24246886,
        "meta_eccentricity": 0.0004432,
        "meta_inclination": 97.4602,
        "meta_ra_of_asc_node": 157.1742,
        "meta_arg_of_pericenter": 344.5644,
        "meta_mean_anomaly": 15.5457,
        "meta_ephemeris_type": 0,
        "meta_classification_type": "U",
        "meta_norad_cat_id": 58702,
        "meta_element_set_no": 999,
        "meta_rev_at_epoch": 10568,
        "meta_bstar": 0.00031657,
        "meta_mean_motion_dot": 7.655e-05,
        "meta_mean_motion_ddot": 0,
        "tle_line1": "1 58702U 24004C   25335.85925426  .00007655  00000+0  31657-3 0  9998",
        "tle_line2": "2 58702  97.4602 157.1742 0004432 344.5644  15.5457 15.24246886105685"
      },
      "geometry": {
        "type": "Point",
        "coordinates": [
          -42.034237291833215,
          -68.70636629074606
        ]
      }
    },
    {
      "type": "Feature",
      "properties": {
        "norad_id": 58703,
        "name": "TIANMU-1 18",
        "group": "weather",
        "lat": -18.066361562623168,
        "lon": 160.25496268742282,
        "alt_km": 495.54309059802654,
        "timestamp": "2025-12-02T07:10:08.752285+00:00",
        "meta_object_name": "TIANMU-1 18",
        "meta_object_id": "2024-004D",
        "meta_epoch": "2025-12-01T20:13:11.633664",
        "meta_mean_motion": 15.24240282,
        "meta_eccentricity": 0.0003804,
        "meta_inclination": 97.462,
        "meta_ra_of_asc_node": 157.3504,
        "meta_arg_of_pericenter": 346.3455,
        "meta_mean_anomaly": 13.7679,
        "meta_ephemeris_type": 0,
        "meta_classification_type": "U",
        "meta_norad_cat_id": 58703,
        "meta_element_set_no": 999,
        "meta_rev_at_epoch": 10568,
        "meta_bstar": 0.00029906,
        "meta_mean_motion_dot": 7.226e-05,
        "meta_mean_motion_ddot": 0,
        "tle_line1": "1 58703U 24004D   25335.84249576  .00007226  00000+0  29906-3 0  9991",
        "tle_line2": "2 58703  97.4620 157.3504 0003804 346.3455  13.7679 15.24240282105686"
      },
      "geometry": {
        "type": "Point",
        "coordinates": [
          160.25496268742282,
          -18.066361562623168
        ]
      }
    },
    {
      "type": "Feature",
      "properties": {
        "norad_id": 58990,
        "name": "INSAT-3DS",
        "group": "weather",
        "lat": -0.01029944203560887,
        "lon": -98.96906236877172,
        "alt_km": 35780.04136656386,
        "timestamp": "2025-12-02T07:10:08.752297+00:00",
        "meta_object_name": "INSAT-3DS",
        "meta_object_id": "2024-033A",
        "meta_epoch": "2025-12-01T19:20:27.517056",
        "meta_mean_motion": 1.00269858,
        "meta_eccentricity": 0.0001575,
        "meta_inclination": 0.0129,
        "meta_ra_of_asc_node": 259.913,
        "meta_arg_of_pericenter": 352.9322,
        "meta_mean_anomaly": 190.3077,
        "meta_ephemeris_type": 0,
        "meta_classification_type": "U",
        "meta_norad_cat_id": 58990,
        "meta_element_set_no": 999,
        "meta_rev_at_epoch": 4508,
        "meta_bstar": 0,
        "meta_mean_motion_dot": -1.35e-06,
        "meta_mean_motion_ddot": 0,
        "tle_line1": "1 58990U 24033A   25335.80587404 -.00000135  00000+0  00000+0 0  9995",
        "tle_line2": "2 58990   0.0129 259.9130 0001575 352.9322 190.3077  1.00269858 45081"
      },
      "geometry": {
        "type": "Point",
        "coordinates": [
          -98.96906236877172,
          -0.01029944203560887
        ]
      }
    },
    {
      "type": "Feature",
      "properties": {
        "norad_id": 59051,
        "name": "METEOR-M2 4",
        "group": "weather",
        "lat": 22.178384626074426,
        "lon": -70.19625711975985,
        "alt_km": 811.4466562143352,
        "timestamp": "2025-12-02T07:10:08.752307+00:00",
        "meta_object_name": "METEOR-M2 4",
        "meta_object_id": "2024-039A",
        "meta_epoch": "2025-12-01T20:56:04.458048",
        "meta_mean_motion": 14.22398489,
        "meta_eccentricity": 0.0007621,
        "meta_inclination": 98.6751,
        "meta_ra_of_asc_node": 292.9524,
        "meta_arg_of_pericenter": 28.6161,
        "meta_mean_anomaly": 331.5434,
        "meta_ephemeris_type": 0,
        "meta_classification_type": "U",
        "meta_norad_cat_id": 59051,
        "meta_element_set_no": 999,
        "meta_rev_at_epoch": 9121,
        "meta_bstar": 4.2145e-05,
        "meta_mean_motion_dot": 5e-07,
        "meta_mean_motion_ddot": 0,
        "tle_line1": "1 59051U 24039A   25335.87227382  .00000050  00000+0  42145-4 0  9999",
        "tle_line2": "2 59051  98.6751 292.9524 0007621  28.6161 331.5434 14.22398489 91217"
      },
      "geometry": {
        "type": "Point",
        "coordinates": [
          -70.19625711975985,
          22.178384626074426
        ]
      }
    },
    {
      "type": "Feature",
      "properties": {
        "norad_id": 60133,
        "name": "GOES 19",
        "group": "weather",
        "lat": -0.003342409186440555,
        "lon": 103.73865081497671,
        "alt_km": 35790.937921378856,
        "timestamp": "2025-12-02T07:10:08.752318+00:00",
        "meta_object_name": "GOES 19",
        "meta_object_id": "2024-119A",
        "meta_epoch": "2025-12-01T18:35:24.333216",
        "meta_mean_motion": 1.00271597,
        "meta_eccentricity": 0.0001165,
        "meta_inclination": 0.0159,
        "meta_ra_of_asc_node": 141.7458,
        "meta_arg_of_pericenter": 156.5209,
        "meta_mean_anomaly": 336.2961,
        "meta_ephemeris_type": 0,
        "meta_classification_type": "U",
        "meta_norad_cat_id": 60133,
        "meta_element_set_no": 999,
        "meta_rev_at_epoch": 498,
        "meta_bstar": 0,
        "meta_mean_motion_dot": -2.27e-06,
        "meta_mean_motion_ddot": 0,
        "tle_line1": "1 60133U 24119A   25335.77458719 -.00000227  00000+0  00000+0 0  9996",
        "tle_line2": "2 60133   0.0159 141.7458 0001165 156.5209 336.2961  1.00271597  4984"
      },
      "geometry": {
        "type": "Point",
        "coordinates": [
          103.73865081497671,
          -0.003342409186440555
        ]
      }
    },
    {
      "type": "Feature",
      "properties": {
        "norad_id": 65815,
        "name": "FENGYUN 3H",
        "group": "weather",
        "lat": -4.832840781596874,
        "lon": -83.1455209442603,
        "alt_km": 829.0630349930161,
        "timestamp": "2025-12-02T07:10:08.752329+00:00",
        "meta_object_name": "FENGYUN 3H",
        "meta_object_id": "2025-219A",
        "meta_epoch": "2025-12-01T19:21:12.809664",
        "meta_mean_motion": 14.19899557,
        "meta_eccentricity": 6.55e-05,
        "meta_inclination": 98.6567,
        "meta_ra_of_asc_node": 275.635,
        "meta_arg_of_pericenter": 67.6554,
        "meta_mean_anomaly": 292.4692,
        "meta_ephemeris_type": 0,
        "meta_classification_type": "U",
        "meta_norad_cat_id": 65815,
        "meta_element_set_no": 999,
        "meta_rev_at_epoch": 937,
        "meta_bstar": 7.3126e-05,
        "meta_mean_motion_dot": 1.12e-06,
        "meta_mean_motion_ddot": 0,
        "tle_line1": "1 65815U 25219A   25335.80639826  .00000112  00000+0  73126-4 0  9990",
        "tle_line2": "2 65815  98.6567 275.6350 0000655  67.6554 292.4692 14.19899557  9376"
      },
      "geometry": {
        "type": "Point",
        "coordinates": [
          -83.1455209442603,
          -4.832840781596874
        ]
      }
    }
  ]
}